[{"OBJECT_NAME":"STARLINK-4431","OBJECT_ID":"2022-099X","EPOCH":"2026-03-09T21:35:47.349312","MEAN_MOTION":15.0126052,"ECCENTRICITY":0.00036348,"INCLINATION":97.6018,"RA_OF_ASC_NODE":190.4109,"ARG_OF_PERICENTER":169.3856,"MEAN_ANOMALY":190.7446,"EPHEMERIS_TYPE":0,"CLASSIFICATION_TYPE":"U","NORAD_CAT_ID":53486,"ELEMENT_SET_NO":999,"REV_AT_EPOCH":19601,"BSTAR":-4.7761047e-5,"MEAN_MOTION_DOT":-6.72e-6,"MEAN_MOTION_DDOT":0},{"OBJECT_NAME":"CZ-4C R\/B","OBJECT_ID":"2018-043B","EPOCH":"2026-03-09T16:58:49.840320","MEAN_MOTION":14.86896347,"ECCENTRICITY":0.00868429,"INCLINATION":98.1687,"RA_OF_ASC_NODE":134.0913,"ARG_OF_PERICENTER":153.5979,"MEAN_ANOMALY":206.9701,"EPHEMERIS_TYPE":0,"CLASSIFICATION_TYPE":"U","NORAD_CAT_ID":43462,"ELEMENT_SET_NO":999,"REV_AT_EPOCH":42398,"BSTAR":0.00015965796,"MEAN_MOTION_DOT":1.463e-5,"MEAN_MOTION_DDOT":0}]
